[{"OBJECT_NAME":"STARLINK-1801","OBJECT_ID":"2020-073AH","EPOCH":"2026-03-10T00:00:02.999808","MEAN_MOTION":15.71605578,"ECCENTRICITY":0.00058448,"INCLINATION":53.0451,"RA_OF_ASC_NODE":196.4487,"ARG_OF_PERICENTER":213.6688,"MEAN_ANOMALY":260.6117,"EPHEMERIS_TYPE":0,"CLASSIFICATION_TYPE":"U","NORAD_CAT_ID":46701,"ELEMENT_SET_NO":999,"REV_AT_EPOCH":590,"BSTAR":4.5163381e-5,"MEAN_MOTION_DOT":5.32e-5,"MEAN_MOTION_DDOT":0},{"OBJECT_NAME":"KEPLER-21","OBJECT_ID":"2023-054AS","EPOCH":"2026-03-09T19:23:14.157600","MEAN_MOTION":15.73096759,"ECCENTRICITY":0.00048854,"INCLINATION":97.2962,"RA_OF_ASC_NODE":342.626,"ARG_OF_PERICENTER":55.6816,"MEAN_ANOMALY":304.491,"EPHEMERIS_TYPE":0,"CLASSIFICATION_TYPE":"U","NORAD_CAT_ID":56218,"ELEMENT_SET_NO":999,"REV_AT_EPOCH":16349,"BSTAR":0.0005813485,"MEAN_MOTION_DOT":0.00079942,"MEAN_MOTION_DDOT":0}]
